SL-4 R/B                
1 39679U 14021B   26051.22468310  .00011807  00000+0  26759-3 0  9990
2 39679  51.6066  62.4388 0098794  39.2836 321.5262 15.38552509653580
ALOS-2                  
1 39766U 14029A   26051.26962403 -.00000333  00000+0 -37786-4 0  9998
2 39766  97.9210 150.1180 0001624  99.7005 260.4391 14.79464062634292
YAOGAN-29               
1 41038U 15069A   26051.25159054  .00000871  00000+0  11397-3 0  9991
2 41038  98.0159  79.6327 0002767  65.3496 294.8005 14.82976639553296
ASTRO-H (HITOMI)        
1 41337U 16012A   26051.24830135  .00002773  00000+0  16130-3 0  9990
2 41337  30.9991 109.0878 0009870 157.8480 202.2586 15.09869155549597
HXMT (HUIYAN)           
1 42758U 17034A   26051.26739836  .00004393  00000+0  22614-3 0  9995
2 42758  43.0139 113.5163 0030721 125.8183 234.5527 15.17229952479897
CZ-2C R/B               
1 43521U 18054D   26051.22877103  .00674375  22793-3  76860-3 0  9995
2 43521  35.1268  61.3276 0011480 144.5555 215.5953 16.07930870426092
SAOCOM 1A               
1 43641U 18076A   26051.27528156  .00000496  00000+0  68838-4 0  9995
2 43641  97.8871 239.6937 0001313  82.0048 278.1314 14.82147362398788
H-2A R/B                
1 43682U 18084L   26051.13499575  .00017936  00000+0  43858-3 0  9997
2 43682  98.8743 264.7820 0026315  84.2625 276.1616 15.40535794403073
SAOCOM 1B               
1 46265U 20059A   26051.30653366 -.00000121  00000+0 -86943-5 0  9995
2 46265  97.8870 238.8227 0001499  83.4345 276.7039 14.82150252296175
CSS (TIANHE)            
1 48274U 21035A   26051.17723654  .00020706  00000+0  25310-3 0  9993
2 48274  41.4676 314.6566 0004643 152.1392 207.9696 15.59912191274876
COSMOS 2550             
1 48865U 21056A   26051.23732323 -.00000183  00000+0  27169-6 0  9997
2 48865  67.1417  93.7235 0008376 269.6268  90.3927 15.33829214260782
CZ-2C R/B               
1 52794U 22058K   26051.01717759  .00028087  00000+0  43222-3 0  9995
2 52794  50.1886  49.1039 0042142 125.5608 234.9302 15.52924326207385
