CCSDS_OMM_VERS = 2.0
CREATION_DATE  = 
ORIGINATOR     = 

OBJECT_NAME    = SL-4 R/B
OBJECT_ID      = 2014-021B
CENTER_NAME    = EARTH
REF_FRAME      = TEME
TIME_SYSTEM    = UTC
MEAN_ELEMENT_THEORY = SGP/SGP4

EPOCH          = 2026-02-20T05:23:32.619840
MEAN_MOTION    = 15.38552509
ECCENTRICITY   = .00987942
INCLINATION    = 51.6066
RA_OF_ASC_NODE = 62.4388
ARG_OF_PERICENTER = 39.2836
MEAN_ANOMALY   = 321.5262

EPHEMERIS_TYPE = 0
CLASSIFICATION_TYPE = U
NORAD_CAT_ID   = 39679
ELEMENT_SET_NO = 999
REV_AT_EPOCH   = 65358
BSTAR          = .26758806E-3
MEAN_MOTION_DOT = .11807E-3
MEAN_MOTION_DDOT = 0

CCSDS_OMM_VERS = 2.0
CREATION_DATE  = 
ORIGINATOR     = 

OBJECT_NAME    = ALOS-2
OBJECT_ID      = 2014-029A
CENTER_NAME    = EARTH
REF_FRAME      = TEME
TIME_SYSTEM    = UTC
MEAN_ELEMENT_THEORY = SGP/SGP4

EPOCH          = 2026-02-20T06:28:15.516192
MEAN_MOTION    = 14.79464062
ECCENTRICITY   = .00016244
INCLINATION    = 97.9210
RA_OF_ASC_NODE = 150.1180
ARG_OF_PERICENTER = 99.7005
MEAN_ANOMALY   = 260.4391

EPHEMERIS_TYPE = 0
CLASSIFICATION_TYPE = U
NORAD_CAT_ID   = 39766
ELEMENT_SET_NO = 999
REV_AT_EPOCH   = 63429
BSTAR          = -.37785561E-4
MEAN_MOTION_DOT = -.333E-5
MEAN_MOTION_DDOT = 0

CCSDS_OMM_VERS = 2.0
CREATION_DATE  = 
ORIGINATOR     = 

OBJECT_NAME    = YAOGAN-29
OBJECT_ID      = 2015-069A
CENTER_NAME    = EARTH
REF_FRAME      = TEME
TIME_SYSTEM    = UTC
MEAN_ELEMENT_THEORY = SGP/SGP4

EPOCH          = 2026-02-20T06:02:17.422656
MEAN_MOTION    = 14.82976639
ECCENTRICITY   = .00027675
INCLINATION    = 98.0159
RA_OF_ASC_NODE = 79.6327
ARG_OF_PERICENTER = 65.3496
MEAN_ANOMALY   = 294.8005

EPHEMERIS_TYPE = 0
CLASSIFICATION_TYPE = U
NORAD_CAT_ID   = 41038
ELEMENT_SET_NO = 999
REV_AT_EPOCH   = 55329
BSTAR          = .11397302E-3
MEAN_MOTION_DOT = .871E-5
MEAN_MOTION_DDOT = 0

CCSDS_OMM_VERS = 2.0
CREATION_DATE  = 
ORIGINATOR     = 

OBJECT_NAME    = ASTRO-H (HITOMI)
OBJECT_ID      = 2016-012A
CENTER_NAME    = EARTH
REF_FRAME      = TEME
TIME_SYSTEM    = UTC
MEAN_ELEMENT_THEORY = SGP/SGP4

EPOCH          = 2026-02-20T05:57:33.236640
MEAN_MOTION    = 15.09869155
ECCENTRICITY   = .00098705
INCLINATION    = 30.9991
RA_OF_ASC_NODE = 109.0878
ARG_OF_PERICENTER = 157.8480
MEAN_ANOMALY   = 202.2586

EPHEMERIS_TYPE = 0
CLASSIFICATION_TYPE = U
NORAD_CAT_ID   = 41337
ELEMENT_SET_NO = 999
REV_AT_EPOCH   = 54959
BSTAR          = .16129714E-3
MEAN_MOTION_DOT = .2773E-4
MEAN_MOTION_DDOT = 0

CCSDS_OMM_VERS = 2.0
CREATION_DATE  = 
ORIGINATOR     = 

OBJECT_NAME    = HXMT (HUIYAN)
OBJECT_ID      = 2017-034A
CENTER_NAME    = EARTH
REF_FRAME      = TEME
TIME_SYSTEM    = UTC
MEAN_ELEMENT_THEORY = SGP/SGP4

EPOCH          = 2026-02-20T06:25:03.218304
MEAN_MOTION    = 15.17229952
ECCENTRICITY   = .00307216
INCLINATION    = 43.0139
RA_OF_ASC_NODE = 113.5163
ARG_OF_PERICENTER = 125.8183
MEAN_ANOMALY   = 234.5527

EPHEMERIS_TYPE = 0
CLASSIFICATION_TYPE = U
NORAD_CAT_ID   = 42758
ELEMENT_SET_NO = 999
REV_AT_EPOCH   = 47989
BSTAR          = .22614462E-3
MEAN_MOTION_DOT = .4393E-4
MEAN_MOTION_DDOT = 0

CCSDS_OMM_VERS = 2.0
CREATION_DATE  = 
ORIGINATOR     = 

OBJECT_NAME    = CZ-2C R/B
OBJECT_ID      = 2018-054D
CENTER_NAME    = EARTH
REF_FRAME      = TEME
TIME_SYSTEM    = UTC
MEAN_ELEMENT_THEORY = SGP/SGP4

EPOCH          = 2026-02-20T05:29:25.816992
MEAN_MOTION    = 16.07930870
ECCENTRICITY   = .00114801
INCLINATION    = 35.1268
RA_OF_ASC_NODE = 61.3276
ARG_OF_PERICENTER = 144.5555
MEAN_ANOMALY   = 215.5953

EPHEMERIS_TYPE = 0
CLASSIFICATION_TYPE = U
NORAD_CAT_ID   = 43521
ELEMENT_SET_NO = 999
REV_AT_EPOCH   = 42609
BSTAR          = .76859506E-3
MEAN_MOTION_DOT = .674375E-2
MEAN_MOTION_DDOT = .22792957E-3

CCSDS_OMM_VERS = 2.0
CREATION_DATE  = 
ORIGINATOR     = 

OBJECT_NAME    = SAOCOM 1A
OBJECT_ID      = 2018-076A
CENTER_NAME    = EARTH
REF_FRAME      = TEME
TIME_SYSTEM    = UTC
MEAN_ELEMENT_THEORY = SGP/SGP4

EPOCH          = 2026-02-20T06:36:24.326784
MEAN_MOTION    = 14.82147362
ECCENTRICITY   = .0001313
INCLINATION    = 97.8871
RA_OF_ASC_NODE = 239.6937
ARG_OF_PERICENTER = 82.0048
MEAN_ANOMALY   = 278.1314

EPHEMERIS_TYPE = 0
CLASSIFICATION_TYPE = U
NORAD_CAT_ID   = 43641
ELEMENT_SET_NO = 999
REV_AT_EPOCH   = 39878
BSTAR          = .68837896E-4
MEAN_MOTION_DOT = .496E-5
MEAN_MOTION_DDOT = 0

CCSDS_OMM_VERS = 2.0
CREATION_DATE  = 
ORIGINATOR     = 

OBJECT_NAME    = H-2A R/B
OBJECT_ID      = 2018-084L
CENTER_NAME    = EARTH
REF_FRAME      = TEME
TIME_SYSTEM    = UTC
MEAN_ELEMENT_THEORY = SGP/SGP4

EPOCH          = 2026-02-20T03:14:23.632800
MEAN_MOTION    = 15.40535794
ECCENTRICITY   = .00263155
INCLINATION    = 98.8743
RA_OF_ASC_NODE = 264.7820
ARG_OF_PERICENTER = 84.2625
MEAN_ANOMALY   = 276.1616

EPHEMERIS_TYPE = 0
CLASSIFICATION_TYPE = U
NORAD_CAT_ID   = 43682
ELEMENT_SET_NO = 999
REV_AT_EPOCH   = 40307
BSTAR          = .43857902E-3
MEAN_MOTION_DOT = .17936E-3
MEAN_MOTION_DDOT = 0

CCSDS_OMM_VERS = 2.0
CREATION_DATE  = 
ORIGINATOR     = 

OBJECT_NAME    = SAOCOM 1B
OBJECT_ID      = 2020-059A
CENTER_NAME    = EARTH
REF_FRAME      = TEME
TIME_SYSTEM    = UTC
MEAN_ELEMENT_THEORY = SGP/SGP4

EPOCH          = 2026-02-20T07:21:24.508224
MEAN_MOTION    = 14.82150252
ECCENTRICITY   = .00014998
INCLINATION    = 97.8870
RA_OF_ASC_NODE = 238.8227
ARG_OF_PERICENTER = 83.4345
MEAN_ANOMALY   = 276.7039

EPHEMERIS_TYPE = 0
CLASSIFICATION_TYPE = U
NORAD_CAT_ID   = 46265
ELEMENT_SET_NO = 999
REV_AT_EPOCH   = 29617
BSTAR          = -.869432E-5
MEAN_MOTION_DOT = -.121E-5
MEAN_MOTION_DDOT = 0

CCSDS_OMM_VERS = 2.0
CREATION_DATE  = 
ORIGINATOR     = 

OBJECT_NAME    = CSS (TIANHE)
OBJECT_ID      = 2021-035A
CENTER_NAME    = EARTH
REF_FRAME      = TEME
TIME_SYSTEM    = UTC
MEAN_ELEMENT_THEORY = SGP/SGP4

EPOCH          = 2026-02-20T04:15:13.237056
MEAN_MOTION    = 15.59912191
ECCENTRICITY   = .00046431
INCLINATION    = 41.4676
RA_OF_ASC_NODE = 314.6566
ARG_OF_PERICENTER = 152.1392
MEAN_ANOMALY   = 207.9696

EPHEMERIS_TYPE = 0
CLASSIFICATION_TYPE = U
NORAD_CAT_ID   = 48274
ELEMENT_SET_NO = 999
REV_AT_EPOCH   = 27487
BSTAR          = .25309532E-3
MEAN_MOTION_DOT = .20706E-3
MEAN_MOTION_DDOT = 0

CCSDS_OMM_VERS = 2.0
CREATION_DATE  = 
ORIGINATOR     = 

OBJECT_NAME    = COSMOS 2550
OBJECT_ID      = 2021-056A
CENTER_NAME    = EARTH
REF_FRAME      = TEME
TIME_SYSTEM    = UTC
MEAN_ELEMENT_THEORY = SGP/SGP4

EPOCH          = 2026-02-20T05:41:44.727072
MEAN_MOTION    = 15.33829214
ECCENTRICITY   = .00083763
INCLINATION    = 67.1417
RA_OF_ASC_NODE = 93.7235
ARG_OF_PERICENTER = 269.6268
MEAN_ANOMALY   = 90.3927

EPHEMERIS_TYPE = 0
CLASSIFICATION_TYPE = U
NORAD_CAT_ID   = 48865
ELEMENT_SET_NO = 999
REV_AT_EPOCH   = 26078
BSTAR          = .271694E-6
MEAN_MOTION_DOT = -.183E-5
MEAN_MOTION_DDOT = 0

CCSDS_OMM_VERS = 2.0
CREATION_DATE  = 
ORIGINATOR     = 

OBJECT_NAME    = CZ-2C R/B
OBJECT_ID      = 2022-058K
CENTER_NAME    = EARTH
REF_FRAME      = TEME
TIME_SYSTEM    = UTC
MEAN_ELEMENT_THEORY = SGP/SGP4

EPOCH          = 2026-02-20T00:24:44.143776
MEAN_MOTION    = 15.52924326
ECCENTRICITY   = .00421425
INCLINATION    = 50.1886
RA_OF_ASC_NODE = 49.1039
ARG_OF_PERICENTER = 125.5608
MEAN_ANOMALY   = 234.9302

EPHEMERIS_TYPE = 0
CLASSIFICATION_TYPE = U
NORAD_CAT_ID   = 52794
ELEMENT_SET_NO = 999
REV_AT_EPOCH   = 20738
BSTAR          = .43222218E-3
MEAN_MOTION_DOT = .28087E-3
MEAN_MOTION_DDOT = 0

